{"type": "FeatureCollection", "features": [ {"type": "Feature", "properties": {"norad_id": 66777, "name": "TRANSPORTER-15DR", "group": "last-30-days", "lat": 54.89755298086697, "lon": 60.21366310170246, "alt_km": 502.2266236257128, "timestamp": "2025-12-25T07:41:08.449261+00:00", "meta": {"OBJECT_NAME": "TRANSPORTER-15DR", "OBJECT_ID": "2025-276DR", "EPOCH": "2025-12-24T20:22:28.581024", "MEAN_MOTION": 15.18962143, "ECCENTRICITY": 0.00035412, "INCLINATION": 97.4463, "RA_OF_ASC_NODE": 70.4733, "ARG_OF_PERICENTER": 108.0754, "MEAN_ANOMALY": 252.0866, "EPHEMERIS_TYPE": 0, "CLASSIFICATION_TYPE": "U", "NORAD_CAT_ID": 66777, "ELEMENT_SET_NO": 999, "REV_AT_EPOCH": 396, "BSTAR": 0.00061904741, "MEAN_MOTION_DOT": 0.00012886, "MEAN_MOTION_DDOT": 0}, "tle": {"line1": "1 66777U 25276DR  25358.84894191  .00012886  00000+0  61905-3 0  9990", "line2": "2 66777  97.4463  70.4733 0003541 108.0754 252.0866 15.18962143  3967"}}, "geometry": {"type": "Point", "coordinates": [60.21366310170246, 54.89755298086697]}}, {"type": "Feature", "properties": {"norad_id": 66778, "name": "TRANSPORTER-15DS", "group": "last-30-days", "lat": -60.39746281386832, "lon": -122.4558292263996, "alt_km": 524.9525438592109, "timestamp": "2025-12-25T07:41:08.449271+00:00", "meta": {"OBJECT_NAME": "TRANSPORTER-15DS", "OBJECT_ID": "2025-276DS", "EPOCH": "2025-12-18T19:26:21.991200", "MEAN_MOTION": 15.16535337, "ECCENTRICITY": 0.00032319, "INCLINATION": 97.4427, "RA_OF_ASC_NODE": 64.4586, "ARG_OF_PERICENTER": 41.3734, "MEAN_ANOMALY": 318.7744, "EPHEMERIS_TYPE": 0, "CLASSIFICATION_TYPE": "U", "NORAD_CAT_ID": 66778, "ELEMENT_SET_NO": 999, "REV_AT_EPOCH": 304, "BSTAR": 0.00025483693, "MEAN_MOTION_DOT": 4.904e-05, "MEAN_MOTION_DDOT": 0}, "tle": {"line1": "1 66778U 25276DS  25352.80997675  .00004904  00000+0  25484-3 0  9996", "line2": "2 66778  97.4427  64.4586 0003231  41.3734 318.7744 15.16535337  3043"}}, "geometry": {"type": "Point", "coordinates": [-122.4558292263996, -60.39746281386832]}}, {"type": "Feature", "properties": {"norad_id": 66791, "name": "STARLINK-35867", "group": "last-30-days", "lat": 6.338574920318977, "lon": -10.145491684955465, "alt_km": 433.51553531593163, "timestamp": "2025-12-25T07:41:08.449283+00:00", "meta": {"OBJECT_NAME": "STARLINK-35867", "OBJECT_ID": "2025-278A", "EPOCH": "2025-12-24T22:00:03.000096", "MEAN_MOTION": 15.4580032, "ECCENTRICITY": 0.00018898, "INCLINATION": 43.0007, "RA_OF_ASC_NODE": 179.0414, "ARG_OF_PERICENTER": 278.8438, "MEAN_ANOMALY": 164.754, "EPHEMERIS_TYPE": 0, "CLASSIFICATION_TYPE": "U", "NORAD_CAT_ID": 66791, "ELEMENT_SET_NO": 999, "REV_AT_EPOCH": 491, "BSTAR": -0.044987833, "MEAN_MOTION_DOT": -0.01992703, "MEAN_MOTION_DDOT": 0}, "tle": {"line1": "1 66791U 25278A   25358.91670139 -.01992703  00000+0 -44988-1 0  9998", "line2": "2 66791  43.0007 179.0414 0001889 278.8438 164.7540 15.45800320  4916"}}, "geometry": {"type": "Point", "coordinates": [-10.145491684955465, 6.338574920318977]}}, {"type": "Feature", "properties": {"norad_id": 66792, "name": "STARLINK-35990", "group": "last-30-days", "lat": -6.702625895923644, "lon": 3.8979853468370953, "alt_km": 415.60296601095797, "timestamp": "2025-12-25T07:41:08.449293+00:00", "meta": {"OBJECT_NAME": "STARLINK-35990", "OBJECT_ID": "2025-278B", "EPOCH": "2025-12-24T22:00:03.000096", "MEAN_MOTION": 15.50564462, "ECCENTRICITY": 0.00018935, "INCLINATION": 43.0003, "RA_OF_ASC_NODE": 179.0138, "ARG_OF_PERICENTER": 272.5471, "MEAN_ANOMALY": 182.0065, "EPHEMERIS_TYPE": 0, "CLASSIFICATION_TYPE": "U", "NORAD_CAT_ID": 66792, "ELEMENT_SET_NO": 999, "REV_AT_EPOCH": 491, "BSTAR": -0.00019143767, "MEAN_MOTION_DOT": -0.0001155, "MEAN_MOTION_DDOT": 0}, "tle": {"line1": "1 66792U 25278B   25358.91670139 -.00011550  00000+0 -19144-3 0  9998", "line2": "2 66792  43.0003 179.0138 0001893 272.5471 182.0065 15.50564462  4914"}}, "geometry": {"type": "Point", "coordinates": [3.8979853468370953, -6.702625895923644]}}, {"type": "Feature", "properties": {"norad_id": 66793, "name": "STARLINK-36051", "group": "last-30-days", "lat": -9.280307820989242, "lon": 6.74257352653153, "alt_km": 415.8350562352498, "timestamp": "2025-12-25T07:41:08.449306+00:00", "meta": {"OBJECT_NAME": "STARLINK-36051", "OBJECT_ID": "2025-278C", "EPOCH": "2025-12-24T22:00:03.000096", "MEAN_MOTION": 15.50498285, "ECCENTRICITY": 0.00016583, "INCLINATION": 43.0003, "RA_OF_ASC_NODE": 179.0042, "ARG_OF_PERICENTER": 276.4973, "MEAN_ANOMALY": 181.9074, "EPHEMERIS_TYPE": 0, "CLASSIFICATION_TYPE": "U", "NORAD_CAT_ID": 66793, "ELEMENT_SET_NO": 999, "REV_AT_EPOCH": 481, "BSTAR": 0.0017976756, "MEAN_MOTION_DOT": 0.00106256, "MEAN_MOTION_DDOT": 0}, "tle": {"line1": "1 66793U 25278C   25358.91670139  .00106256  00000+0  17977-2 0  9996", "line2": "2 66793  43.0003 179.0042 0001658 276.4973 181.9074 15.50498285  4814"}}, "geometry": {"type": "Point", "coordinates": [6.74257352653153, -9.280307820989242]}}, {"type": "Feature", "properties": {"norad_id": 66794, "name": "STARLINK-36062", "group": "last-30-days", "lat": -7.987701449556782, "lon": 5.308554575549463, "alt_km": 415.5632853605166, "timestamp": "2025-12-25T07:41:08.449316+00:00", "meta": {"OBJECT_NAME": "STARLINK-36062", "OBJECT_ID": "2025-278D", "EPOCH": "2025-12-24T22:00:03.000096", "MEAN_MOTION": 15.50498559, "ECCENTRICITY": 0.00021318, "INCLINATION": 43.0002, "RA_OF_ASC_NODE": 179.0086, "ARG_OF_PERICENTER": 270.4568, "MEAN_ANOMALY": 186.0307, "EPHEMERIS_TYPE": 0, "CLASSIFICATION_TYPE": "U", "NORAD_CAT_ID": 66794, "ELEMENT_SET_NO": 999, "REV_AT_EPOCH": 491, "BSTAR": 0.0017915071, "MEAN_MOTION_DOT": 0.00105889, "MEAN_MOTION_DDOT": 0}, "tle": {"line1": "1 66794U 25278D   25358.91670139  .00105889  00000+0  17915-2 0  9990", "line2": "2 66794  43.0002 179.0086 0002131 270.4568 186.0307 15.50498559  4913"}}, "geometry": {"type": "Point", "coordinates": [5.308554575549463, -7.987701449556782]}}, {"type": "Feature", "properties": {"norad_id": 66795, "name": "STARLINK-36047", "group": "last-30-days", "lat": -10.154783788302366, "lon": 7.7226072556183745, "alt_km": 419.5681571950254, "timestamp": "2025-12-25T07:41:08.449326+00:00", "meta": {"OBJECT_NAME": "STARLINK-36047", "OBJECT_ID": "2025-278E", "EPOCH": "2025-12-24T22:00:03.000096", "MEAN_MOTION": 15.50945321, "ECCENTRICITY": 0.00016287, "INCLINATION": 43.0004, "RA_OF_ASC_NODE": 179.0002, "ARG_OF_PERICENTER": 290.4709, "MEAN_ANOMALY": 169.7766, "EPHEMERIS_TYPE": 0, "CLASSIFICATION_TYPE": "U", "NORAD_CAT_ID": 66795, "ELEMENT_SET_NO": 999, "REV_AT_EPOCH": 481, "BSTAR": -0.032842094, "MEAN_MOTION_DOT": -0.01739341, "MEAN_MOTION_DDOT": 0}, "tle": {"line1": "1 66795U 25278E   25358.91670139 -.01739341  00000+0 -32842-1 0  9995", "line2": "2 66795  43.0004 179.0002 0001628 290.4709 169.7766 15.50945321  4813"}}, "geometry": {"type": "Point", "coordinates": [7.7226072556183745, -10.154783788302366]}}, {"type": "Feature", "properties": {"norad_id": 66796, "name": "STARLINK-35964", "group": "last-30-days", "lat": -12.624033422479897, "lon": 7.8307732544916595, "alt_km": 327.69505000123627, "timestamp": "2025-12-25T07:41:08.449338+00:00", "meta": {"OBJECT_NAME": "STARLINK-35964", "OBJECT_ID": "2025-278F", "EPOCH": "2025-12-24T21:45:12.173760", "MEAN_MOTION": 15.80987869, "ECCENTRICITY": 0.00013712, "INCLINATION": 42.9909, "RA_OF_ASC_NODE": 176.4535, "ARG_OF_PERICENTER": 265.7822, "MEAN_ANOMALY": 94.2893, "EPHEMERIS_TYPE": 0, "CLASSIFICATION_TYPE": "U", "NORAD_CAT_ID": 66796, "ELEMENT_SET_NO": 999, "REV_AT_EPOCH": 377, "BSTAR": 0.0018872556, "MEAN_MOTION_DOT": 0.00396242, "MEAN_MOTION_DDOT": 0}, "tle": {"line1": "1 66796U 25278F   25358.90639090  .00396242  00000+0  18873-2 0  9991", "line2": "2 66796  42.9909 176.4535 0001371 265.7822  94.2893 15.80987869  3777"}}, "geometry": {"type": "Point", "coordinates": [7.8307732544916595, -12.624033422479897]}}, {"type": "Feature", "properties": {"norad_id": 66797, "name": "STARLINK-36099", "group": "last-30-days", "lat": -13.1091498594502, "lon": 11.101489345720942, "alt_km": 416.07031602381176, "timestamp": "2025-12-25T07:41:08.449349+00:00", "meta": {"OBJECT_NAME": "STARLINK-36099", "OBJECT_ID": "2025-278G", "EPOCH": "2025-12-24T22:00:03.000096", "MEAN_MOTION": 15.50489232, "ECCENTRICITY": 0.00018843, "INCLINATION": 43.0003, "RA_OF_ASC_NODE": 178.9904, "ARG_OF_PERICENTER": 275.8856, "MEAN_ANOMALY": 188.2734, "EPHEMERIS_TYPE": 0, "CLASSIFICATION_TYPE": "U", "NORAD_CAT_ID": 66797, "ELEMENT_SET_NO": 999, "REV_AT_EPOCH": 497, "BSTAR": 0.00215068, "MEAN_MOTION_DOT": 0.00127497, "MEAN_MOTION_DDOT": 0}, "tle": {"line1": "1 66797U 25278G   25358.91670139  .00127497  00000+0  21507-2 0  9994", "line2": "2 66797  43.0003 178.9904 0001884 275.8856 188.2734 15.50489232  4979"}}, "geometry": {"type": "Point", "coordinates": [11.101489345720942, -13.1091498594502]}}, {"type": "Feature", "properties": {"norad_id": 66798, "name": "STARLINK-36041", "group": "last-30-days", "lat": -14.372153625450066, "lon": 12.58467054020662, "alt_km": 416.09490476095834, "timestamp": "2025-12-25T07:41:08.449361+00:00", "meta": {"OBJECT_NAME": "STARLINK-36041", "OBJECT_ID": "2025-278H", "EPOCH": "2025-12-24T22:00:03.000096", "MEAN_MOTION": 15.50489895, "ECCENTRICITY": 0.00020224, "INCLINATION": 43.0003, "RA_OF_ASC_NODE": 178.9849, "ARG_OF_PERICENTER": 275.4512, "MEAN_ANOMALY": 190.6217, "EPHEMERIS_TYPE": 0, "CLASSIFICATION_TYPE": "U", "NORAD_CAT_ID": 66798, "ELEMENT_SET_NO": 999, "REV_AT_EPOCH": 475, "BSTAR": 0.0023620541, "MEAN_MOTION_DOT": 0.00140296, "MEAN_MOTION_DDOT": 0}, "tle": {"line1": "1 66798U 25278H   25358.91670139  .00140296  00000+0  23621-2 0  9996", "line2": "2 66798  43.0003 178.9849 0002022 275.4512 190.6217 15.50489895  4752"}}, "geometry": {"type": "Point", "coordinates": [12.58467054020662, -14.372153625450066]}}]}